NORAD_CAT_ID,OBJECT_NAME,OBJECT_TYPE,EPOCH,MEAN_MOTION,ECCENTRICITY,INCLINATION,RA_OF_ASC_NODE,ARG_OF_PERICENTER,MEAN_ANOMALY,BSTAR,MEAN_MOTION_DOT,MEAN_MOTION_DDOT,TLE_LINE0,TLE_LINE1,TLE_LINE2,SEMIMAJOR_AXIS,PERIOD,APOGEE,PERIGEE,DECAYED
56790.0,STARLINK-6345,PAYLOAD,2024-02-13 22:00:00,15.25034519,0.0003211,70.0,48.3375,272.7984,233.2991,-0.037402,-0.00862153,0.0,0 STARLINK-6345,1 56790U 23078Z   24044.91667824 -.00862153  00000-0 -37402-1 0  9998,2 56790  70.0000  48.3375 0003211 272.7984 233.2991 15.25034519  5977,6868.819,94.424,492.889,488.478,0.0
56790.0,STARLINK-6345,PAYLOAD,2024-02-14 14:00:01,15.23779292,0.0003232,69.9999,46.5874,277.3364,286.2521,-0.043361,-0.00966443,0.0,0 STARLINK-6345,1 56790U 23078Z   24045.58334491 -.00966443  00000-0 -43361-1 0  9991,2 56790  69.9999  46.5874 0003232 277.3364 286.2521 15.23779292 40957,6872.59,94.502,496.677,492.234,0.0
56790.0,STARLINK-6345,PAYLOAD,2024-02-14 22:00:01,15.23081617,0.0003242,70.0003,45.7138,270.2176,321.0214,-0.039895,-0.00867025,0.0,0 STARLINK-6345,1 56790U 23078Z   24045.91668981 -.00867025  00000-0 -39895-1 0  9995,2 56790  70.0003  45.7138 0003242 270.2176 321.0214 15.23081617  6040,6874.689,94.545,498.783,494.325,0.0
56790.0,STARLINK-6345,PAYLOAD,2024-02-15 06:00:02,15.22447831,0.0003287,70.0005,44.841,274.4428,343.593,-0.042955,-0.00923525,0.0,0 STARLINK-6345,1 56790U 23078Z   24046.25002315 -.00923525  00000-0 -42955-1 0  9995,2 56790  70.0005  44.8410 0003287 274.4428 343.5930 15.22447831 41057,6876.597,94.585,500.722,496.201,0.0
56790.0,STARLINK-6345,PAYLOAD,2024-02-15 14:00:01,15.21823639,0.0003324,70.0002,43.969,275.86,8.115,-0.046151,-0.00970318,0.0,0 STARLINK-6345,1 56790U 23078Z   24046.58334491 -.00970318  00000-0 -46151-1 0  9998,2 56790  70.0002  43.9690 0003324 275.8600   8.1150 15.21823639  6044,6878.477,94.623,502.628,498.056,0.0
56790.0,STARLINK-6345,PAYLOAD,2024-02-15 22:00:00,15.21125713,0.0003363,70.0005,43.098,270.0691,39.1445,-0.042321,-0.00878394,0.0,0 STARLINK-6345,1 56790U 23078Z   24046.91667824 -.00878394  00000-0 -42321-1 0  9990,2 56790  70.0005  43.0980 0003363 270.0691  39.1445 15.21125713  6094,6880.581,94.667,504.76,500.132,0.0
56790.0,STARLINK-6345,PAYLOAD,2024-02-16 06:00:00,15.20491121,0.000336,70.0006,42.2278,276.8101,56.8544,-0.045443,-0.00922412,0.0,0 STARLINK-6345,1 56790U 23078Z   24047.25001157 -.00922412  00000-0 -45443-1 0  9998,2 56790  70.0006  42.2278 0003360 276.8101  56.8544 15.20491121 41209,6882.495,94.706,506.673,502.048,0.0
56790.0,STARLINK-6345,PAYLOAD,2024-02-16 14:00:01,15.19866116,0.0003374,70.0003,41.3583,278.717,78.6045,-0.048849,-0.00969754,0.0,0 STARLINK-6345,1 56790U 23078Z   24047.58334491 -.00969754  00000-0 -48849-1 0  9997,2 56790  70.0003  41.3583 0003374 278.7170  78.6045 15.19866116  6046,6884.382,94.745,508.57,503.924,0.0
56790.0,STARLINK-6345,PAYLOAD,2024-02-16 22:00:00,15.19171331,0.0003371,70.0005,40.49,273.3256,106.8862,-0.044992,-0.00881758,0.0,0 STARLINK-6345,1 56790U 23078Z   24047.91667824 -.00881758  00000-0 -44992-1 0  9995,2 56790  70.0005  40.4900 0003371 273.3256 106.8862 15.19171331  6098,6886.481,94.789,510.667,506.024,0.0
56790.0,STARLINK-6345,PAYLOAD,2024-02-17 06:00:00,15.18534395,0.000337,70.0006,39.6223,277.9288,124.388,-0.048163,-0.00923402,0.0,0 STARLINK-6345,1 56790U 23078Z   24048.25001157 -.00923402  00000-0 -48163-1 0  9991,2 56790  70.0006  39.6223 0003370 277.9288 124.3880 15.18534395 41356,6888.406,94.828,512.593,507.95,0.0
56790.0,STARLINK-6345,PAYLOAD,2024-02-17 14:00:01,15.17907125,0.0003343,70.0002,38.7556,279.245,144.3822,-0.051482,-0.00965845,0.0,0 STARLINK-6345,1 56790U 23078Z   24048.58334491 -.00965845  00000-0 -51482-1 0  9992,2 56790  70.0002  38.7556 0003343 279.2450 144.3822 15.17907125  5843,6890.304,94.867,514.472,509.865,0.0
56790.0,STARLINK-6345,PAYLOAD,2024-02-17 22:00:00,15.17220163,0.0003266,70.0005,37.8897,273.6677,170.5015,-0.048048,-0.00889437,0.0,0 STARLINK-6345,1 56790U 23078Z   24048.91667824 -.00889437  00000-0 -48048-1 0  9994,2 56790  70.0005  37.8897 0003266 273.6677 170.5015 15.17220163  5897,6892.384,94.91,516.5,511.998,0.0
56790.0,STARLINK-6345,PAYLOAD,2024-02-18 06:00:00,15.16574437,0.0003263,70.0005,37.0248,278.0416,185.8879,-0.050639,-0.00917989,0.0,0 STARLINK-6345,1 56790U 23078Z   24049.25001157 -.00917989  00000-0 -50639-1 0  9996,2 56790  70.0005  37.0248 0003263 278.0416 185.8879 15.16574437 41506,6894.34,94.951,518.454,513.955,0.0
56790.0,STARLINK-6345,PAYLOAD,2024-02-18 14:00:01,15.15950108,0.000317,70.0001,36.1606,278.4044,204.4881,-0.054422,-0.00965239,0.0,0 STARLINK-6345,1 56790U 23078Z   24049.58334491 -.00965239  00000-0 -54422-1 0  9997,2 56790  70.0001  36.1606 0003170 278.4044 204.4881 15.15950108  6007,6896.233,94.99,520.284,515.912,0.0
56790.0,STARLINK-6345,PAYLOAD,2024-02-18 22:00:00,15.15269013,0.0003133,70.0004,35.2974,272.3458,228.7395,-0.051337,-0.00898096,0.0,0 STARLINK-6345,1 56790U 23078Z   24049.91667824 -.00898096  00000-0 -51337-1 0  9991,2 56790  70.0004  35.2974 0003133 272.3458 228.7395 15.15269013  6051,6898.299,95.033,522.325,518.003,0.0
56790.0,STARLINK-6345,PAYLOAD,2024-02-19 06:00:00,15.14613889,0.0003171,70.0004,34.435,277.1022,241.3995,-0.053115,-0.00911092,0.0,0 STARLINK-6345,1 56790U 23078Z   24050.25001157 -.00911092  00000-0 -53115-1 0  9999,2 56790  70.0004  34.4350 0003171 277.1022 241.3995 15.14613889 41668,6900.288,95.074,524.341,519.965,0.0
56790.0,STARLINK-6345,PAYLOAD,2024-02-19 14:00:01,15.13992494,0.0003132,70.0001,33.5734,276.3981,258.7192,-0.057527,-0.00965143,0.0,0 STARLINK-6345,1 56790U 23078Z   24050.58334491 -.00965143  00000-0 -57527-1 0  9992,2 56790  70.0001  33.5734 0003132 276.3981 258.7192 15.13992494  5812,6902.176,95.113,526.203,521.879,0.0
56790.0,STARLINK-6345,PAYLOAD,2024-02-19 22:00:00,15.13315099,0.000312,70.0004,32.7129,270.5257,280.4358,-0.054513,-0.0090209,0.0,0 STARLINK-6345,1 56790U 23078Z   24050.91667824 -.00902090  00000-0 -54513-1 0  9992,2 56790  70.0004  32.7129 0003120 270.5257 280.4358 15.13315099  5875,6904.236,95.155,528.255,523.946,0.0
56790.0,STARLINK-6345,PAYLOAD,2024-02-20 06:00:00,15.1265343,0.0003173,70.0004,31.853,275.6475,290.3861,-0.055716,-0.00904828,0.0,0 STARLINK-6345,1 56790U 23078Z   24051.25001157 -.00904828  00000-0 -55716-1 0  9998,2 56790  70.0004  31.8530 0003173 275.6475 290.3861 15.12653430 41813,6906.249,95.197,530.305,525.922,0.0
56790.0,STARLINK-6345,PAYLOAD,2024-02-20 14:00:01,15.12034998,0.0003138,70.0001,30.994,274.4618,305.8401,-0.060763,-0.0096491,0.0,0 STARLINK-6345,1 56790U 23078Z   24051.58334491 -.00964910  00000-0 -60763-1 0  9990,2 56790  70.0001  30.9940 0003138 274.4618 305.8401 15.12034998  5973,6908.132,95.236,532.165,527.829,0.0
56790.0,STARLINK-6345,PAYLOAD,2024-02-21 00:00:00,15.11219875,0.0003326,70.0006,29.9217,269.8779,57.1653,-0.060654,-0.00943311,0.0,0 STARLINK-6345,1 56790U 23078Z   24052.00001157 -.00943311  00000-0 -60654-1 0  9999,2 56790  70.0006  29.9217 0003326 269.8779  57.1653 15.11219875  5882,6910.616,95.287,534.779,530.182,0.0
56790.0,STARLINK-6345,PAYLOAD,2024-02-21 06:00:00,15.10694053,0.0003216,70.0005,29.2789,274.7247,331.7998,-0.058496,-0.00899866,0.0,0 STARLINK-6345,1 56790U 23078Z   24052.25001157 -.00899866  00000-0 -58496-1 0  9992,2 56790  70.0005  29.2789 0003216 274.7247 331.7998 15.10694053 41967,6912.219,95.32,536.307,531.861,0.0
56790.0,STARLINK-6345,PAYLOAD,2024-02-21 14:00:01,15.10076354,0.0003164,70.0003,28.4225,273.4205,345.0257,-0.06402,-0.00962931,0.0,0 STARLINK-6345,1 56790U 23078Z   24052.58334491 -.00962931  00000-0 -64020-1 0  9992,2 56790  70.0003  28.4225 0003164 273.4205 345.0257 15.10076354  5978,6914.104,95.359,538.157,533.781,0.0
56790.0,STARLINK-6345,PAYLOAD,2024-02-21 22:00:00,15.09407061,0.0003206,70.0007,27.5671,268.5966,0.9964,-0.06135,-0.00910003,0.0,0 STARLINK-6345,1 56790U 23078Z   24052.91667824 -.00910003  00000-0 -61350-1 0  9994,2 56790  70.0007  27.5671 0003206 268.5966   0.9964 15.09407061 42067,6916.148,95.402,540.23,535.795,0.0
56790.0,STARLINK-6345,PAYLOAD,2024-02-22 14:00:01,15.08116938,0.0003197,70.0006,25.8588,273.2302,16.3201,-0.067326,-0.00959787,0.0,0 STARLINK-6345,1 56790U 23078Z   24053.58334491 -.00959787  00000-0 -67326-1 0  9990,2 56790  70.0006  25.8588 0003197 273.2302  16.3201 15.08116938 42165,6920.091,95.483,544.169,539.744,0.0
56790.0,STARLINK-6345,PAYLOAD,2024-02-22 22:00:00,15.07453284,0.0003241,70.0011,25.0061,268.8253,29.5228,-0.065087,-0.00914743,0.0,0 STARLINK-6345,1 56790U 23078Z   24053.91667824 -.00914743  00000-0 -65087-1 0  9991,2 56790  70.0011  25.0061 0003241 268.8253  29.5228 15.07453284  6032,6922.122,95.525,546.231,541.744,0.0
56790.0,STARLINK-6345,PAYLOAD,2024-02-23 06:00:00,15.06777724,0.0003245,70.0011,24.1541,274.999,31.3841,-0.064542,-0.00892281,0.0,0 STARLINK-6345,1 56790U 23078Z   24054.25001157 -.00892281  00000-0 -64542-1 0  9997,2 56790  70.0011  24.1541 0003245 274.9990  31.3841 15.06777724 42269,6924.191,95.568,548.303,543.809,0.0
56790.0,STARLINK-6345,PAYLOAD,2024-02-23 14:00:01,15.06157084,0.0003214,70.001,23.3029,273.46,40.1539,-0.070699,-0.00955833,0.0,0 STARLINK-6345,1 56790U 23078Z   24054.58334491 -.00955833  00000-0 -70699-1 0  9996,2 56790  70.0010  23.3029 0003214 273.4600  40.1539 15.06157084  5990,6926.093,95.608,550.184,545.732,0.0
56790.0,STARLINK-6345,PAYLOAD,2024-02-23 22:00:01,15.05498507,0.0003262,70.0015,22.4527,269.4347,50.6909,-0.068899,-0.00918056,0.0,0 STARLINK-6345,1 56790U 23078Z   24054.91668981 -.00918056  00000-0 -68899-1 0  9992,2 56790  70.0015  22.4527 0003262 269.4347  50.6909 15.05498507 42360,6928.113,95.649,552.238,547.718,0.0
56790.0,STARLINK-6345,PAYLOAD,2024-02-24 14:00:01,15.04196762,0.0003193,70.0014,20.7548,273.8698,56.8299,-0.074121,-0.00961943,0.0,0 STARLINK-6345,1 56790U 23078Z   24055.58335648 -.00961943  00000-0 -74121-1 0  9995,2 56790  70.0014  20.7548 0003193 273.8698  56.8299 15.04196762 42462,6932.109,95.732,556.188,551.761,0.0
